{
  "type": "FeatureCollection",
  "features": [
    {
      "type": "Feature",
      "properties": {
        "norad_id": 64903,
        "name": "CO3D 1",
        "group": "resource",
        "lat": 68.44513142449843,
        "lon": 57.54134946688134,
        "alt_km": 498.0908685906388,
        "timestamp": "2025-12-26T18:39:31.930398+00:00",
        "meta_object_name": "CO3D 1",
        "meta_object_id": "2025-156E",
        "meta_epoch": "2025-12-26T12:02:03.647040",
        "meta_mean_motion": 15.20191629,
        "meta_eccentricity": 7.686e-05,
        "meta_inclination": 97.434,
        "meta_ra_of_asc_node": 76.5713,
        "meta_arg_of_pericenter": 74.426,
        "meta_mean_anomaly": 285.706,
        "meta_ephemeris_type": 0,
        "meta_classification_type": "U",
        "meta_norad_cat_id": 64903,
        "meta_element_set_no": 999,
        "meta_rev_at_epoch": 2329,
        "meta_bstar": 0.0003276941,
        "meta_mean_motion_dot": 7.031e-05,
        "meta_mean_motion_ddot": 0,
        "tle_line1": "1 64903U 25156E   25360.50143110  .00007031  00000+0  32769-3 0  9992",
        "tle_line2": "2 64903  97.4340  76.5713 0000768  74.4260 285.7060 15.20191629 23294"
      },
      "geometry": {
        "type": "Point",
        "coordinates": [
          57.54134946688134,
          68.44513142449843
        ]
      }
    },
    {
      "type": "Feature",
      "properties": {
        "norad_id": 66514,
        "name": "SENTINEL-6B",
        "group": "resource",
        "lat": 21.769614012756673,
        "lon": 143.50583982101102,
        "alt_km": 1338.9714567601186,
        "timestamp": "2025-12-26T18:39:31.930408+00:00",
        "meta_object_name": "SENTINEL-6B",
        "meta_object_id": "2025-264A",
        "meta_epoch": "2025-12-26T14:47:11.764896",
        "meta_mean_motion": 12.80929558,
        "meta_eccentricity": 0.00079125,
        "meta_inclination": 66.0401,
        "meta_ra_of_asc_node": 133.6127,
        "meta_arg_of_pericenter": 269.9703,
        "meta_mean_anomaly": 90.0405,
        "meta_ephemeris_type": 0,
        "meta_classification_type": "U",
        "meta_norad_cat_id": 66514,
        "meta_element_set_no": 999,
        "meta_rev_at_epoch": 506,
        "meta_bstar": 6.7521188e-05,
        "meta_mean_motion_dot": -4.5e-07,
        "meta_mean_motion_ddot": 0,
        "tle_line1": "1 66514U 25264A   25360.61610839 -.00000045  00000+0  67521-4 0  9995",
        "tle_line2": "2 66514  66.0401 133.6127 0007912 269.9703  90.0405 12.80929558  5067"
      },
      "geometry": {
        "type": "Point",
        "coordinates": [
          143.50583982101102,
          21.769614012756673
        ]
      }
    }
  ]
}